OBJECT_NAME,OBJECT_ID,EPOCH,MEAN_MOTION,ECCENTRICITY,INCLINATION,RA_OF_ASC_NODE,ARG_OF_PERICENTER,MEAN_ANOMALY,EPHEMERIS_TYPE,CLASSIFICATION_TYPE,NORAD_CAT_ID,ELEMENT_SET_NO,REV_AT_EPOCH,BSTAR,MEAN_MOTION_DOT,MEAN_MOTION_DDOT
POLYITAN-1,2014-033AJ,2026-07-12T13:29:41.291808,15.34156417,.0008123,98.0940,222.2395,71.5850,288.6273,0,U,40042,999,65748,.38349E-3,.12606E-3,0
TIGRISAT,2014-033AK,2026-07-12T20:26:40.997760,14.85245810,.0048818,97.7860,343.2807,352.0846,7.9593,0,U,40043,999,64943,.10472E-3,.861E-5,0
AEROCUBE 6A,2014-033AM,2026-07-12T22:29:16.725696,14.98329984,.0036513,97.7235,0.6171,288.7707,70.9555,0,U,40045,999,65047,.28196E-3,.3342E-4,0
AEROCUBE 6B,2014-033AN,2026-07-12T21:56:32.368128,14.99787089,.0038,97.7196,0.4385,278.1413,81.5500,0,U,40046,999,65061,.24277E-3,.2985E-4,0
CANX-4,2014-034C,2026-07-13T02:10:53.542272,14.81309217,.001147,98.3087,70.3511,290.4106,69.5873,0,U,40055,999,64836,.67045E-4,.466E-5,0
CANX-5,2014-034D,2026-07-13T02:08:12.033024,14.81326588,.0011468,98.3089,70.3942,290.6384,69.3597,0,U,40056,999,63917,.67442E-4,.469E-5,0
UKUBE-1,2014-037F,2026-07-12T22:45:14.590656,15.13931181,.0003324,98.4241,199.9344,92.8108,267.3501,0,U,40074,999,65245,.28623E-3,.5108E-4,0
BRITE-PL2 (HEWELIUSZ),2014-049B,2026-07-13T00:19:59.956896,14.94683999,.0014542,97.9119,306.2169,29.3912,330.8123,0,U,40119,999,64530,.7966E-4,.806E-5,0
AEROCUBE 5C,2015-058B,2026-07-11T23:30:30.300768,14.91564017,.01321165,64.7651,185.4549,53.6557,307.6664,0,U,40965,999,36935,.17688434E-3,.1921E-4,0
AEROCUBE 7,2015-058C,2026-07-12T21:46:42.809088,14.95901101,.0121854,64.7605,164.2428,51.6258,309.5727,0,U,40966,999,36980,.2607E-3,.3214E-4,0
FOX-1A (AO-85),2015-058D,2026-07-13T00:59:20.044608,14.91080547,.0132177,64.7723,198.6294,46.6278,314.5753,0,U,40967,999,11742,.15828E-3,.1677E-4,0
SINOD-D 1,2015-058E,2026-07-12T09:56:45.843936,14.96071501,.01208123,64.7730,179.9000,43.2193,317.8323,0,U,40968,999,12043,.23567524E-3,.2893E-4,0
SNAP-3 ALICE,2015-058G,2026-07-13T04:58:58.626336,15.66833547,.0024377,64.7493,13.5320,349.7617,10.3032,0,U,40970,999,12095,.87975E-3,.95871E-3,0
LMRST-SAT,2015-058H,2026-07-13T00:04:32.167776,14.90695751,.0133731,64.7731,195.1350,48.6461,312.6062,0,U,40971,999,11740,.1547E-3,.1623E-4,0
SNAP-3 EDDIE,2015-058J,2026-07-13T04:14:46.515264,15.68182493,.0025285,64.7400,4.1660,352.3377,7.7382,0,U,40972,999,12309,.90118E-3,.104018E-2,0
PROPCUBE 3,2015-058K,2026-07-12T21:47:44.135808,14.94405175,.0125573,64.7666,172.1639,49.8739,311.3296,0,U,40973,999,11864,.21405E-3,.2519E-4,0
BISONSAT,2015-058L,2026-07-13T03:31:35.826816,15.16897055,.0081857,64.7589,89.6667,36.7421,323.9275,0,U,40974,999,11955,.41901E-3,.8837E-4,0
SNAP-3 JIMI,2015-058M,2026-07-12T22:46:36.072768,15.02589997,.0107685,64.7643,138.2453,45.1872,315.7936,0,U,40975,999,11809,.33053E-3,.4818E-4,0
PROPCUBE 1 (FLORA),2015-058N,2026-07-13T01:10:28.805664,14.89321582,.0132316,64.7718,215.0766,50.9135,310.3657,0,U,40976,999,12011,.12727E-3,.1247E-4,0
SINOD-D 3,2015-058P,2026-07-13T00:15:39.512736,14.94163669,.0120883,64.7700,195.1694,47.9878,313.1451,0,U,40977,999,11861,.20885E-3,.2408E-4,0
RAVAN,2016-067B,2026-07-13T03:40:57.360288,15.57315898,.0001986,97.9849,86.7743,235.0809,125.0258,0,U,41849,999,53173,.52677E-3,.38477E-3,0
CELTEE 1,2016-067C,2026-07-13T01:57:55.868832,15.19929338,.0002271,98.0642,62.4153,112.8115,247.3358,0,U,41850,999,52981,.14772E-3,.3097E-4,0
OPTICUBE 04,2016-067D,2026-07-12T12:43:38.944704,15.09765361,.00163612,98.0676,47.1347,36.5014,323.7325,0,U,41851,999,52899,.87500462E-4,.1344E-4,0
AEROCUBE 8D,2016-067E,2026-07-12T21:12:47.115360,15.24750647,.0004707,98.0651,66.0118,62.5706,297.6008,0,U,41852,999,52998,.20043E-3,.4883E-4,0
AEROCUBE 8C,2016-067F,2026-07-12T13:50:13.043904,15.25001010,.0004548,98.0525,62.8765,351.7275,8.3885,0,U,41853,999,52993,.1879E-3,.4607E-4,0
CORVUS BC2,2017-042X,2026-07-12T21:38:41.559360,15.06451623,.0013698,97.4090,354.2576,31.2657,328.9383,0,U,42846,999,49093,.11124E-3,.1584E-4,0
CORVUS BC1,2017-042Y,2026-07-12T10:17:22.464672,15.06612257,.0011892,97.4116,354.6330,10.4044,349.7427,0,U,42847,999,49089,.81622653E-4,.1151E-4,0
MAKERSAT 0,2017-073D,2026-07-12T21:44:39.665760,15.32952290,.0105335,97.4593,76.6362,180.4050,179.7125,0,U,43016,999,47040,.392E-3,.14826E-3,0
SIRION PATHFINDER-2,2018-099B,2026-07-12T22:42:56.582208,15.14767949,.0008239,97.4243,242.3930,199.6407,160.4509,0,U,43759,999,41652,.16276E-3,.2956E-4,0
CORVUS BC4,2018-099K,2026-07-12T23:42:57.730752,15.12692886,.0006498,97.4056,236.2140,270.3916,89.6570,0,U,43767,999,41630,.15895E-3,.2719E-4,0
